{"type":"Feature","properties":{"name":"Washington","source":"\u00a9 OpenStreetMap contributors (ODbL), relation 165479, simplified"},"geometry":{"type":"Polygon","coordinates":[[[-124.1629,46.7946],[-124.1674,46.7612],[-124.1624,46.7472],[-124.1283,46.7209],[-124.1202,46.6693],[-124.1334,46.6424],[-124.1208,46.4866],[-124.1252,46.3692],[-124.1427,46.2735],[-124.1568,46.2498],[-124.0846,46.2498],[-124.0354,46.264],[-124.0366,46.2909],[-124.0214,46.2924],[-123.9296,46.2387],[-123.872,46.2348],[-123.7403,46.2691],[-123.6881,46.2501],[-123.6493,46.2591],[-123.541,46.2604],[-123.5013,46.2706],[-123.4655,46.2628],[-123.4323,46.2397],[-123.4236,46.2194],[-123.4285,46.1798],[-123.3906,46.1501],[-123.3139,46.1423],[-123.2644,46.1511],[-123.1667,46.1889],[-123.1209,46.1863],[-123.0744,46.1609],[-123.0057,46.1348],[-122.9635,46.1054],[-122.9043,46.0839],[-122.8844,46.0603],[-122.8778,46.0314],[-122.856,46.0144],[-122.8378,45.9809],[-122.8142,45.9609],[-122.8062,45.9323],[-122.8114,45.9129],[-122.785,45.8682],[-122.7957,45.8101],[-122.7696,45.7807],[-122.7615,45.7593],[-122.7601,45.7345],[-122.7746,45.6806],[-122.764,45.6573],[-122.6772,45.6187],[-122.6421,45.6093],[-122.5479,45.5965],[-122.4736,45.5784],[-122.4389,45.5635],[-122.3801,45.5758],[-122.3523,45.5693],[-122.3315,45.5485],[-122.2967,45.5437],[-122.2414,45.5507],[-122.1829,45.5768],[-122.1416,45.584],[-122.1018,45.5832],[-122.0443,45.6096],[-122.0036,45.616],[-121.9631,45.6329],[-121.9558,45.6436],[-121.9349,45.6442],[-121.9081,45.6546],[-121.9018,45.6707],[-121.867,45.6934],[-121.8112,45.7067],[-121.7351,45.694],[-121.7073,45.6948],[-121.6684,45.7051],[-121.6313,45.7047],[-121.5329,45.7265],[-121.4991,45.7208],[-121.4628,45.7013],[-121.424,45.6941],[-121.4018,45.6929],[-121.3726,45.703],[-121.3377,45.7048],[-121.2873,45.6869],[-121.2158,45.6712],[-121.2004,45.6498],[-121.1965,45.6166],[-121.1837,45.6065],[-121.1679,45.6061],[-121.1318,45.6098],[-121.0849,45.6479],[-121.0645,45.6525],[-120.9835,45.6484],[-120.944,45.6564],[-120.9136,45.64],[-120.8958,45.6429],[-120.8554,45.6717],[-120.6896,45.7157],[-120.6351,45.7457],[-120.5912,45.7465],[-120.5593,45.7383],[-120.5058,45.7],[-120.4826,45.6944],[-120.4037,45.6994],[-120.2834,45.7212],[-120.2108,45.7259],[-120.1706,45.762],[-120.1415,45.7732],[-120.0703,45.7852],[-119.9658,45.8244],[-119.9073,45.8282],[-119.8027,45.8476],[-119.7729,45.8457],[-119.67,45.8569],[-119.6236,45.9056],[-119.6007,45.9195],[-119.5716,45.9255],[-119.5245,45.9086],[-119.4881,45.9064],[-119.4504,45.9174],[-119.3645,45.9216],[-119.3226,45.9331],[-119.2571,45.9399],[-119.1955,45.9279],[-119.1263,45.9328],[-119.0272,45.9691],[-118.9873,45.9999],[-116.916,45.9953],[-116.9427,46.061],[-116.9574,46.0754],[-116.9789,46.08],[-116.9825,46.0894],[-116.977,46.0967],[-116.9553,46.1022],[-116.9503,46.1235],[-116.9337,46.139],[-116.9346,46.154],[-116.9219,46.1678],[-116.9658,46.2034],[-116.9553,46.2309],[-116.9667,46.2569],[-116.9907,46.2761],[-116.9867,46.2967],[-117.0207,46.3148],[-117.0238,46.336],[-117.056,46.3455],[-117.0627,46.3536],[-117.0355,46.4155],[-117.0427,47.7609],[-117.0324,48.9992],[-121.7596,48.9973],[-122.0981,49.0024],[-123.3222,49.0021],[-123.0085,48.8312],[-123.0085,48.7671],[-123.2679,48.694],[-123.2189,48.5487],[-123.1599,48.4535],[-123.1151,48.4228],[-123.2484,48.284],[-123.5412,48.2246],[-123.6791,48.24],[-124.0121,48.2967],[-124.7272,48.4934],[-124.8125,48.3919],[-124.7877,48.3545],[-124.7345,48.3181],[-124.7798,48.2255],[-124.8361,48.1761],[-124.7994,48.1345],[-124.7598,48.1032],[-124.7683,48.0706],[-124.761,48.06],[-124.7851,48.0298],[-124.793,47.9634],[-124.764,47.9458],[-124.7497,47.9067],[-124.7202,47.8874],[-124.6937,47.8488],[-124.6367,47.8232],[-124.6156,47.7925],[-124.5768,47.7669],[-124.5363,47.7204],[-124.5661,47.6785],[-124.5525,47.6439],[-124.5063,47.6218],[-124.4603,47.6239],[-124.4519,47.5894],[-124.4366,47.5692],[-124.4222,47.497],[-124.4656,47.4756],[-124.4758,47.4601],[-124.4768,47.439],[-124.4682,47.4231],[-124.4408,47.4047],[-124.4387,47.3819],[-124.427,47.367],[-124.3587,47.3089],[-124.3601,47.2909],[-124.3487,47.2707],[-124.3239,47.2537],[-124.2959,47.2459],[-124.2665,47.1658],[-124.2459,47.0718],[-124.2444,46.9867],[-124.255,46.9205],[-124.2354,46.894],[-124.2084,46.8942],[-124.1916,46.8835],[-124.1629,46.7946]]]}}